{"spkid": "54393696", "covariance": {"epoch": "2460285.5", "labels": ["e", "q", "tp", "node", "peri", "i"], "data": [["4.966589223689828E-12", "-4.97746841489257E-12", "-2.943052229617869E-10", "-1.137048590534655E-10", "4.05840480706684E-10", "1.263806629059835E-10"], ["-4.97746841489257E-12", "4.988378248800636E-12", "2.949535144243157E-10", "1.139700490668438E-10", "-4.067422428357057E-10", "-1.266601583356596E-10"], ["-2.943052229617869E-10", "2.949535144243157E-10", "1.750798953102794E-8", "6.875255461351909E-9", "-2.411380529577654E-8", "-7.495959867308347E-9"], ["-1.137048590534655E-10", "1.139700490668438E-10", "6.875255461351909E-9", "3.080908305756846E-9", "-9.621046153753267E-9", "-2.986313484344926E-9"], ["4.05840480706684E-10", "-4.067422428357057E-10", "-2.411380529577654E-8", "-9.621046153753267E-9", "3.342187331418305E-8", "1.041210009872264E-8"], ["1.263806629059835E-10", "-1.266601583356596E-10", "-7.495959867308347E-9", "-2.986313484344926E-9", "1.041210009872264E-8", "3.251800369085815E-9"]], "elements": [{"value": ".2140135561052733", "title": "eccentricity", "units": null, "sigma": 2.2285845785363e-06, "name": "e", "label": "e"}, {"label": "q", "name": "q", "sigma": 2.23346776309859e-06, "units": "au", "value": ".7854816768061291", "title": "perihelion distance"}, {"title": "time of perihelion passage", "value": "2460320.208661840248", "units": "TDB", "name": "tp", "sigma": 0.000132317759696225, "label": "tp"}, {"value": "35.84336622610141", "title": "longitude of the ascending node", "units": "deg", "name": "om", "sigma": 5.55059303656541e-05, "label": "node"}, {"label": "peri", "title": "argument of perihelion", "value": "96.99720415710136", "units": "deg", "sigma": 0.000182816501755676, "name": "w"}, {"sigma": 5.70245593502117e-05, "name": "i", "units": "deg", "title": "inclination", "value": "4.485731889336048", "label": "i"}]}, "elements": [{"label": "e", "sigma": "2.2338E-6", "name": "e", "units": null, "title": "eccentricity", "value": ".2139845197125526"}, {"label": "a", "units": "au", "title": "semi-major axis", "value": ".994865677074156", "name": "a", "sigma": "5.4181E-8"}, {"label": "q", "title": "perihelion distance", "value": ".7819798229869394", "units": "au", "name": "q", "sigma": "2.1798E-6"}, {"name": "i", "sigma": "5.661E-5", "title": "inclination; angle with respect to x-y ecliptic plane", "value": "4.519000127874069", "units": "deg", "label": "i"}, {"label": "node", "units": "deg", "title": "longitude of the ascending node", "value": "35.72452101070757", "name": "om", "sigma": "5.2446E-5"}, {"title": "argument of perihelion", "value": "98.12331085017419", "units": "deg", "name": "w", "sigma": ".00015598", "label": "peri"}, {"sigma": ".0001109", "name": "ma", "title": "mean anomaly", "value": "150.8868494330797", "units": "deg", "label": "M"}, {"sigma": ".00012396", "name": "tp", "title": "time of perihelion passage", "value": "2461048.587332967026", "units": "TDB", "label": "tp"}, {"sigma": "2.9608E-5", "name": "per", "title": "sidereal orbital period", "value": "362.4474918612822", "units": "d", "label": "period"}, {"value": ".9932473201877779", "title": "mean motion", "units": "deg/d", "name": "n", "sigma": "8.1139E-8", "label": "n"}, {"label": "Q", "value": "1.207751531161373", "title": "aphelion distance", "units": "au", "name": "ad", "sigma": "6.5774E-8"}], "epoch": "2461200.5"}